{
  "type": "FeatureCollection",
  "features": [
    {
      "type": "Feature",
      "properties": {
        "norad_id": 34003,
        "name": "COSMOS 2251 DEB",
        "group": "cosmos-2251-debris",
        "lat": 69.79180745680563,
        "lon": -23.167844100455806,
        "alt_km": 784.4711160433117,
        "timestamp": "2025-12-12T05:47:29.164720+00:00",
        "meta_object_name": "COSMOS 2251 DEB",
        "meta_object_id": "1993-036GN",
        "meta_epoch": "2025-12-11T06:53:17.656224",
        "meta_mean_motion": 13.84139555,
        "meta_eccentricity": 0.02741843,
        "meta_inclination": 74.0781,
        "meta_ra_of_asc_node": 287.5892,
        "meta_arg_of_pericenter": 39.9418,
        "meta_mean_anomaly": 322.1527,
        "meta_ephemeris_type": 0,
        "meta_classification_type": "U",
        "meta_norad_cat_id": 34003,
        "meta_element_set_no": 999,
        "meta_rev_at_epoch": 84405,
        "meta_bstar": 0.0035582926,
        "meta_mean_motion_dot": 5.284e-05,
        "meta_mean_motion_ddot": 0,
        "tle_line1": "1 34003U 93036GN  25345.28700991  .00005284  00000+0  35583-2 0  9990",
        "tle_line2": "2 34003  74.0781 287.5892 0274184  39.9418 322.1527 13.84139555844057"
      },
      "geometry": {
        "type": "Point",
        "coordinates": [
          -23.167844100455806,
          69.79180745680563
        ]
      }
    },
    {
      "type": "Feature",
      "properties": {
        "norad_id": 34004,
        "name": "COSMOS 2251 DEB",
        "group": "cosmos-2251-debris",
        "lat": -40.35737796425155,
        "lon": -60.034337812625964,
        "alt_km": 711.622082158653,
        "timestamp": "2025-12-12T05:47:29.164730+00:00",
        "meta_object_name": "COSMOS 2251 DEB",
        "meta_object_id": "1993-036GP",
        "meta_epoch": "2025-12-11T23:21:26.138016",
        "meta_mean_motion": 14.48998167,
        "meta_eccentricity": 0.00333744,
        "meta_inclination": 74.0358,
        "meta_ra_of_asc_node": 314.5469,
        "meta_arg_of_pericenter": 326.8525,
        "meta_mean_anomaly": 33.0543,
        "meta_ephemeris_type": 0,
        "meta_classification_type": "U",
        "meta_norad_cat_id": 34004,
        "meta_element_set_no": 999,
        "meta_rev_at_epoch": 88019,
        "meta_bstar": 0.0021187604,
        "meta_mean_motion_dot": 8.073e-05,
        "meta_mean_motion_ddot": 0,
        "tle_line1": "1 34004U 93036GP  25345.97321919  .00008073  00000+0  21188-2 0  9991",
        "tle_line2": "2 34004  74.0358 314.5469 0033374 326.8525  33.0543 14.48998167880194"
      },
      "geometry": {
        "type": "Point",
        "coordinates": [
          -60.034337812625964,
          -40.35737796425155
        ]
      }
    },
    {
      "type": "Feature",
      "properties": {
        "norad_id": 34005,
        "name": "COSMOS 2251 DEB",
        "group": "cosmos-2251-debris",
        "lat": -62.17666743276034,
        "lon": 67.3942726096117,
        "alt_km": 763.2334275056646,
        "timestamp": "2025-12-12T05:47:29.164740+00:00",
        "meta_object_name": "COSMOS 2251 DEB",
        "meta_object_id": "1993-036GQ",
        "meta_epoch": "2025-12-12T00:11:46.377888",
        "meta_mean_motion": 14.40303544,
        "meta_eccentricity": 0.00208208,
        "meta_inclination": 74.0444,
        "meta_ra_of_asc_node": 214.999,
        "meta_arg_of_pericenter": 333.2688,
        "meta_mean_anomaly": 145.4934,
        "meta_ephemeris_type": 0,
        "meta_classification_type": "U",
        "meta_norad_cat_id": 34005,
        "meta_element_set_no": 999,
        "meta_rev_at_epoch": 88368,
        "meta_bstar": 0.00015920479,
        "meta_mean_motion_dot": 4.79e-06,
        "meta_mean_motion_ddot": 0,
        "tle_line1": "1 34005U 93036GQ  25346.00817567  .00000479  00000+0  15920-3 0  9996",
        "tle_line2": "2 34005  74.0444 214.9990 0020820 333.2688 145.4934 14.40303544883687"
      },
      "geometry": {
        "type": "Point",
        "coordinates": [
          67.3942726096117,
          -62.17666743276034
        ]
      }
    },
    {
      "type": "Feature",
      "properties": {
        "norad_id": 34006,
        "name": "COSMOS 2251 DEB",
        "group": "cosmos-2251-debris",
        "lat": 51.61476577641281,
        "lon": 165.44632661515374,
        "alt_km": 571.6151828942284,
        "timestamp": "2025-12-12T05:47:29.164750+00:00",
        "meta_object_name": "COSMOS 2251 DEB",
        "meta_object_id": "1993-036GR",
        "meta_epoch": "2025-12-11T12:07:42.635712",
        "meta_mean_motion": 14.94623961,
        "meta_eccentricity": 0.00116095,
        "meta_inclination": 74.0543,
        "meta_ra_of_asc_node": 145.7703,
        "meta_arg_of_pericenter": 93.3053,
        "meta_mean_anomaly": 323.0725,
        "meta_ephemeris_type": 0,
        "meta_classification_type": "U",
        "meta_norad_cat_id": 34006,
        "meta_element_set_no": 999,
        "meta_rev_at_epoch": 88650,
        "meta_bstar": 0.0068858071,
        "meta_mean_motion_dot": 0.00075469,
        "meta_mean_motion_ddot": 0,
        "tle_line1": "1 34006U 93036GR  25345.50535458  .00075469  00000+0  68858-2 0  9995",
        "tle_line2": "2 34006  74.0543 145.7703 0011609  93.3053 323.0725 14.94623961886509"
      },
      "geometry": {
        "type": "Point",
        "coordinates": [
          165.44632661515374,
          51.61476577641281
        ]
      }
    },
    {
      "type": "Feature",
      "properties": {
        "norad_id": 34007,
        "name": "COSMOS 2251 DEB",
        "group": "cosmos-2251-debris",
        "lat": 43.17318647125815,
        "lon": 3.451897557632938,
        "alt_km": 666.9686269210824,
        "timestamp": "2025-12-12T05:47:29.164760+00:00",
        "meta_object_name": "COSMOS 2251 DEB",
        "meta_object_id": "1993-036GS",
        "meta_epoch": "2025-12-12T00:40:02.076384",
        "meta_mean_motion": 14.64778028,
        "meta_eccentricity": 0.00443082,
        "meta_inclination": 74.0197,
        "meta_ra_of_asc_node": 348.2669,
        "meta_arg_of_pericenter": 123.4541,
        "meta_mean_anomaly": 237.0876,
        "meta_ephemeris_type": 0,
        "meta_classification_type": "U",
        "meta_norad_cat_id": 34007,
        "meta_element_set_no": 999,
        "meta_rev_at_epoch": 89069,
        "meta_bstar": 0.0010664514,
        "meta_mean_motion_dot": 5.742e-05,
        "meta_mean_motion_ddot": 0,
        "tle_line1": "1 34007U 93036GS  25346.02780181  .00005742  00000+0  10665-2 0  9999",
        "tle_line2": "2 34007  74.0197 348.2669 0044308 123.4541 237.0876 14.64778028890693"
      },
      "geometry": {
        "type": "Point",
        "coordinates": [
          3.451897557632938,
          43.17318647125815
        ]
      }
    },
    {
      "type": "Feature",
      "properties": {
        "norad_id": 34008,
        "name": "COSMOS 2251 DEB",
        "group": "cosmos-2251-debris",
        "lat": 12.716466848123927,
        "lon": 147.72532173129318,
        "alt_km": 798.3929479486915,
        "timestamp": "2025-12-12T05:47:29.164770+00:00",
        "meta_object_name": "COSMOS 2251 DEB",
        "meta_object_id": "1993-036GT",
        "meta_epoch": "2025-12-12T00:14:54.722976",
        "meta_mean_motion": 14.3314554,
        "meta_eccentricity": 0.00242897,
        "meta_inclination": 74.0342,
        "meta_ra_of_asc_node": 331.8513,
        "meta_arg_of_pericenter": 327.2038,
        "meta_mean_anomaly": 88.4557,
        "meta_ephemeris_type": 0,
        "meta_classification_type": "U",
        "meta_norad_cat_id": 34008,
        "meta_element_set_no": 999,
        "meta_rev_at_epoch": 87954,
        "meta_bstar": 0.00019968658,
        "meta_mean_motion_dot": 5.24e-06,
        "meta_mean_motion_ddot": 0,
        "tle_line1": "1 34008U 93036GT  25346.01035559  .00000524  00000+0  19969-3 0  9991",
        "tle_line2": "2 34008  74.0342 331.8513 0024289 327.2038  88.4557 14.33145540879541"
      },
      "geometry": {
        "type": "Point",
        "coordinates": [
          147.72532173129318,
          12.716466848123927
        ]
      }
    },
    {
      "type": "Feature",
      "properties": {
        "norad_id": 34009,
        "name": "COSMOS 2251 DEB",
        "group": "cosmos-2251-debris",
        "lat": -21.87768702089167,
        "lon": 164.44755439904515,
        "alt_km": 803.1357564252357,
        "timestamp": "2025-12-12T05:47:29.164780+00:00",
        "meta_object_name": "COSMOS 2251 DEB",
        "meta_object_id": "1993-036GU",
        "meta_epoch": "2025-12-12T00:07:57.392832",
        "meta_mean_motion": 14.33221253,
        "meta_eccentricity": 0.00264832,
        "meta_inclination": 74.037,
        "meta_ra_of_asc_node": 338.2784,
        "meta_arg_of_pericenter": 48.1365,
        "meta_mean_anomaly": 18.3653,
        "meta_ephemeris_type": 0,
        "meta_classification_type": "U",
        "meta_norad_cat_id": 34009,
        "meta_element_set_no": 999,
        "meta_rev_at_epoch": 87935,
        "meta_bstar": 0.00021746387,
        "meta_mean_motion_dot": 5.74e-06,
        "meta_mean_motion_ddot": 0,
        "tle_line1": "1 34009U 93036GU  25346.00552538  .00000574  00000+0  21746-3 0  9993",
        "tle_line2": "2 34009  74.0370 338.2784 0026483  48.1365  18.3653 14.33221253879358"
      },
      "geometry": {
        "type": "Point",
        "coordinates": [
          164.44755439904515,
          -21.87768702089167
        ]
      }
    }
  ]
}